[{"OBJECT_NAME":"TUSUR GO (RS78S)","OBJECT_ID":"2024-199AZ","EPOCH":"2026-03-09T22:48:41.341536","MEAN_MOTION":15.7089308,"ECCENTRICITY":0.00036127,"INCLINATION":97.3018,"RA_OF_ASC_NODE":306.7757,"ARG_OF_PERICENTER":269.724,"MEAN_ANOMALY":90.3609,"EPHEMERIS_TYPE":0,"CLASSIFICATION_TYPE":"U","NORAD_CAT_ID":61782,"ELEMENT_SET_NO":999,"REV_AT_EPOCH":11926,"BSTAR":0.0013446465,"MEAN_MOTION_DOT":0.00170473,"MEAN_MOTION_DDOT":0},{"OBJECT_NAME":"STARLINK-11720 [DTC]","OBJECT_ID":"2025-111J","EPOCH":"2026-03-09T01:38:25.055520","MEAN_MOTION":15.70868642,"ECCENTRICITY":0.00020543,"INCLINATION":43.0011,"RA_OF_ASC_NODE":337.3907,"ARG_OF_PERICENTER":288.0932,"MEAN_ANOMALY":71.9712,"EPHEMERIS_TYPE":0,"CLASSIFICATION_TYPE":"U","NORAD_CAT_ID":64131,"ELEMENT_SET_NO":999,"REV_AT_EPOCH":4649,"BSTAR":0.001001556,"MEAN_MOTION_DOT":0.00130258,"MEAN_MOTION_DDOT":0}]
